OBJECT_NAME,OBJECT_ID,EPOCH,MEAN_MOTION,ECCENTRICITY,INCLINATION,RA_OF_ASC_NODE,ARG_OF_PERICENTER,MEAN_ANOMALY,EPHEMERIS_TYPE,CLASSIFICATION_TYPE,NORAD_CAT_ID,ELEMENT_SET_NO,REV_AT_EPOCH,BSTAR,MEAN_MOTION_DOT,MEAN_MOTION_DDOT
ONEWEB-0708,2024-188V,2025-10-03T10:43:25.378464,13.10377347,.00024558,87.8756,87.4705,91.0065,269.1344,0,U,61613,999,4967,-.1881547E-4,.6E-7,0
TIANPING 3A-01,2024-189A,2025-09-27T01:22:56.098272,15.01067191,.00028032,97.5601,293.0805,97.7730,262.3813,0,U,61614,999,5101,.56516836E-3,.7173E-4,0
YAOGAN-43 03A,2024-190A,2025-10-03T14:42:50.944896,15.22920082,.00054068,34.9922,11.4884,163.8883,196.2004,0,U,61617,999,5272,.72886061E-3,.17528E-3,0
YAOGAN-43 03B,2024-190B,2025-10-03T14:43:48.910656,15.22933348,.00082337,34.9893,11.4212,268.0116,91.9655,0,U,61618,999,5272,.84476242E-3,.20347E-3,0
YAOGAN-43 03C,2024-190C,2025-10-03T14:51:14.291424,15.23007370,.00061325,34.9975,11.6880,193.5055,166.5496,0,U,61619,999,5268,.28352066E-3,.6804E-4,0
STARLINK-32302,2024-191A,2025-10-03T12:40:42.500352,15.27587621,.00010834,43.0014,321.8072,259.9504,100.1225,0,U,61621,999,5425,-.14555891E-3,-.4266E-4,0
STARLINK-32364,2024-191B,2025-10-03T12:55:30.286272,15.27580536,.00006603,42.9998,321.8807,263.4153,96.6623,0,U,61622,999,5350,-.66115227E-4,-.2081E-4,0
STARLINK-32331,2024-191C,2025-10-03T03:48:22.784256,15.27548794,.00025656,43.0041,327.6634,276.1415,83.9144,0,U,61623,999,5340,.22753774E-3,.5998E-4,0
STARLINK-32398,2024-191D,2025-10-03T11:38:00.618432,15.27570571,.00004772,43.0041,322.3406,308.0916,51.9892,0,U,61624,999,5349,.1275031E-3,.3247E-4,0
STARLINK-32365,2024-191E,2025-10-03T12:44:24.696960,15.27570823,.00009768,43.0039,321.8240,243.2990,116.7761,0,U,61625,999,5350,-.10047907E-4,-.538E-5,0
STARLINK-32333,2024-191F,2025-10-03T11:55:47.964288,15.27579399,.00013673,43.0024,325.9012,272.8109,87.2586,0,U,61626,999,5345,.21738026E-3,.5724E-4,0
STARLINK-32399,2024-191G,2025-10-03T02:49:24.292128,15.27571876,.00018154,43.0028,316.9512,276.3545,83.7099,0,U,61627,999,5352,.54411799E-4,.1235E-4,0
STARLINK-32421,2024-191H,2025-10-03T13:21:24.957504,15.27587541,.0001297,43.0006,322.0199,290.8342,69.2370,0,U,61628,999,5350,.2352327E-3,.6218E-4,0
STARLINK-32403,2024-191J,2025-10-03T13:06:37.003104,15.27577092,.00009491,42.9981,321.9383,222.5677,137.5101,0,U,61629,999,5350,.49563096E-3,.134E-3,0
STARLINK-32390,2024-191K,2025-10-03T11:58:20.354016,15.27591806,.00014867,43.0030,322.4463,286.4366,73.6322,0,U,61630,999,5349,.91623626E-4,.2261E-4,0
STARLINK-32348,2024-191L,2025-10-03T10:10:31.246464,15.27652239,.00013362,43.0044,326.2156,282.4689,77.6013,0,U,61631,999,5344,.87969204E-3,.24077E-3,0
STARLINK-32455,2024-191M,2025-10-03T13:41:04.291584,15.27605956,.00013815,43.0008,325.5910,260.7825,99.2870,0,U,61632,999,5346,.75012523E-3,.20453E-3,0
STARLINK-32396,2024-191N,2025-10-03T11:50:15.605088,15.27607458,.00016771,43.0024,325.8732,271.4586,88.6074,0,U,61633,999,5345,.56283537E-3,.15271E-3,0
STARLINK-32355,2024-191P,2025-10-03T12:10:37.507584,15.27557455,.0001535,43.0023,325.9765,278.0735,81.9943,0,U,61634,999,5345,-.75343326E-4,-.2333E-4,0
STARLINK-32370,2024-191Q,2025-10-03T14:09:17.606304,15.27564001,.00014935,43.0057,321.4102,277.7873,82.2809,0,U,61635,999,5351,.30734931E-3,.8201E-4,0
STARLINK-32405,2024-191R,2025-10-03T10:42:01.343232,15.27551878,.0001763,43.0028,326.3743,282.0167,78.0487,0,U,61636,999,5344,.52560214E-4,.1183E-4,0
STARLINK-32419,2024-191S,2025-10-03T13:26:58.166016,15.27567780,.00003253,42.9991,322.0426,217.9035,142.1794,0,U,61637,999,5350,-.25977714E-4,-.976E-5,0
STARLINK-32320,2024-191T,2025-10-03T12:21:41.649696,15.27598624,.00020313,43.0059,326.0326,290.9152,69.1482,0,U,61638,999,5345,.83544539E-4,.2038E-4,0
STARLINK-32341,2024-191U,2025-10-03T11:41:40.612704,15.27596563,.00005193,42.9979,322.3566,232.3600,127.7205,0,U,61639,999,5349,.14901692E-3,.3843E-4,0
STARLINK-32339,2024-191V,2025-10-03T03:04:40.768896,15.27577007,.00006013,43.0046,323.9652,249.4359,110.6428,0,U,61640,999,5343,.27576787E-3,.7333E-4,0
STARLINK-32327,2024-191W,2025-10-03T12:49:57.989280,15.27562120,.00015919,43.0037,321.8485,274.0352,86.0318,0,U,61641,999,5350,.4529926E-5,-.138E-5,0
STARLINK-32264,2024-191X,2025-10-03T13:35:31.660224,15.27559162,.00005985,43.0057,325.5568,270.9733,89.1050,0,U,61642,999,5346,.94916379E-4,.2349E-4,0
STARLINK-32337,2024-191Y,2025-10-03T05:10:16.229568,15.27553959,.00007205,43.0006,323.7515,171.2498,188.8367,0,U,61643,999,5421,.21431528E-3,.5635E-4,0
STARLINK-32238,2024-193A,2025-10-03T12:58:05.390688,15.30199212,.00015122,53.1591,101.1441,133.7598,226.3528,0,U,61661,999,5246,.80991876E-4,.204E-4,0
STARLINK-32310,2024-193B,2025-10-03T12:29:12.190272,15.30208014,.00014451,53.1596,101.0164,106.2384,253.8776,0,U,61662,999,5246,.17703068E-3,.4889E-4,0
