ONEWEB-0708             
1 61613U 24188V   25276.44682151  .00000006  00000+0 -18815-4 0  9996
2 61613  87.8756  87.4705 0002455  91.0065 269.1344 13.10377347 49679
TIANPING 3A-01          
1 61614U 24189A   25270.05759373  .00007173  00000+0  56517-3 0  9991
2 61614  97.5601 293.0805 0002803  97.7730 262.3813 15.01067191 51014
YAOGAN-43 03A           
1 61617U 24190A   25276.61308964  .00017528  00000+0  72886-3 0  9992
2 61617  34.9922  11.4884 0005406 163.8883 196.2004 15.22920082 52729
YAOGAN-43 03B           
1 61618U 24190B   25276.61376054  .00020347  00000+0  84476-3 0  9999
2 61618  34.9893  11.4212 0008233 268.0116  91.9655 15.22933348 52722
YAOGAN-43 03C           
1 61619U 24190C   25276.61891541  .00006804  00000+0  28352-3 0  9996
2 61619  34.9975  11.6880 0006132 193.5055 166.5496 15.23007370 52682
STARLINK-32302          
1 61621U 24191A   25276.52826968 -.00004266  00000+0 -14556-3 0  9994
2 61621  43.0014 321.8072 0001083 259.9504 100.1225 15.27587621 54250
STARLINK-32364          
1 61622U 24191B   25276.53854498 -.00002081  00000+0 -66115-4 0  9997
2 61622  42.9998 321.8807 0000660 263.4153  96.6623 15.27580536 53502
STARLINK-32331          
1 61623U 24191C   25276.15859704  .00005998  00000+0  22754-3 0  9999
2 61623  43.0041 327.6634 0002565 276.1415  83.9144 15.27548794 53400
STARLINK-32398          
1 61624U 24191D   25276.48472938  .00003247  00000+0  12750-3 0  9996
2 61624  43.0041 322.3406 0000477 308.0916  51.9892 15.27570571 53493
STARLINK-32365          
1 61625U 24191E   25276.53084140 -.00000538  00000+0 -10048-4 0  9998
2 61625  43.0039 321.8240 0000976 243.2990 116.7761 15.27570823 53504
STARLINK-32333          
1 61626U 24191F   25276.49708292  .00005724  00000+0  21738-3 0  9992
2 61626  43.0024 325.9012 0001367 272.8109  87.2586 15.27579399 53454
STARLINK-32399          
1 61627U 24191G   25276.11764227  .00001235  00000+0  54412-4 0  9991
2 61627  43.0028 316.9512 0001815 276.3545  83.7099 15.27571876 53525
STARLINK-32421          
1 61628U 24191H   25276.55653886  .00006218  00000+0  23523-3 0  9992
2 61628  43.0006 322.0199 0001297 290.8342  69.2370 15.27587541 53506
STARLINK-32403          
1 61629U 24191J   25276.54626161  .00013400  00000+0  49563-3 0  9991
2 61629  42.9981 321.9383 0000949 222.5677 137.5101 15.27577092 53507
STARLINK-32390          
1 61630U 24191K   25276.49884669  .00002261  00000+0  91624-4 0  9995
2 61630  43.0030 322.4463 0001486 286.4366  73.6322 15.27591806 53494
STARLINK-32348          
1 61631U 24191L   25276.42397276  .00024077  00000+0  87969-3 0  9997
2 61631  43.0044 326.2156 0001336 282.4689  77.6013 15.27652239 53443
STARLINK-32455          
1 61632U 24191M   25276.57018856  .00020453  00000+0  75013-3 0  9999
2 61632  43.0008 325.5910 0001381 260.7825  99.2870 15.27605956 53462
STARLINK-32396          
1 61633U 24191N   25276.49323617  .00015271  00000+0  56284-3 0  9996
2 61633  43.0024 325.8732 0001677 271.4586  88.6074 15.27607458 53453
STARLINK-32355          
1 61634U 24191P   25276.50737856 -.00002333  00000+0 -75343-4 0  9998
2 61634  43.0023 325.9765 0001535 278.0735  81.9943 15.27557455 53454
STARLINK-32370          
1 61635U 24191Q   25276.58978711  .00008201  00000+0  30735-3 0  9997
2 61635  43.0057 321.4102 0001493 277.7873  82.2809 15.27564001 53517
STARLINK-32405          
1 61636U 24191R   25276.44584888  .00001183  00000+0  52560-4 0  9994
2 61636  43.0028 326.3743 0001763 282.0167  78.0487 15.27551878 53441
STARLINK-32419          
1 61637U 24191S   25276.56039544 -.00000976  00000+0 -25978-4 0  9996
2 61637  42.9991 322.0426 0000325 217.9035 142.1794 15.27567780 53504
STARLINK-32320          
1 61638U 24191T   25276.51506539  .00002038  00000+0  83545-4 0  9998
2 61638  43.0059 326.0326 0002031 290.9152  69.1482 15.27598624 53459
STARLINK-32341          
1 61639U 24191U   25276.48727561  .00003843  00000+0  14902-3 0  9990
2 61639  42.9979 322.3566 0000519 232.3600 127.7205 15.27596563 53499
STARLINK-32339          
1 61640U 24191V   25276.12824964  .00007333  00000+0  27577-3 0  9998
2 61640  43.0046 323.9652 0000601 249.4359 110.6428 15.27577007 53437
STARLINK-32327          
1 61641U 24191W   25276.53469895 -.00000138  00000+0  45299-5 0  9992
2 61641  43.0037 321.8485 0001591 274.0352  86.0318 15.27562120 53507
STARLINK-32264          
1 61642U 24191X   25276.56633866  .00002349  00000+0  94916-4 0  9991
2 61642  43.0057 325.5568 0000598 270.9733  89.1050 15.27559162 53461
STARLINK-32337          
1 61643U 24191Y   25276.21546562  .00005635  00000+0  21432-3 0  9993
2 61643  43.0006 323.7515 0000720 171.2498 188.8367 15.27553959 54216
STARLINK-32238          
1 61661U 24193A   25276.54034017  .00002040  00000+0  80992-4 0  9992
2 61661  53.1591 101.1441 0001512 133.7598 226.3528 15.30199212 52461
STARLINK-32310          
1 61662U 24193B   25276.52027998  .00004889  00000+0  17703-3 0  9993
2 61662  53.1596 101.0164 0001445 106.2384 253.8776 15.30208014 52462
